FENGYUN 1C DEB          
1 31443U 99025BUF 17345.42687682  .00000387  00000-0  13181-3 0  9998
2 31443  99.2547 210.9463 0252632 278.6327  78.6309 14.26804773251040
